[{"OBJECT_NAME":"TOMORROW-S2","OBJECT_ID":"2024-149T","EPOCH":"2026-03-09T18:02:42.746496","MEAN_MOTION":15.30674935,"ECCENTRICITY":0.0001648,"INCLINATION":97.3857,"RA_OF_ASC_NODE":150.0385,"ARG_OF_PERICENTER":234.3331,"MEAN_ANOMALY":125.7757,"EPHEMERIS_TYPE":0,"CLASSIFICATION_TYPE":"U","NORAD_CAT_ID":60485,"ELEMENT_SET_NO":999,"REV_AT_EPOCH":8686,"BSTAR":0.00027683033,"MEAN_MOTION_DOT":8.133e-5,"MEAN_MOTION_DDOT":0},{"OBJECT_NAME":"STARLINK-35767","OBJECT_ID":"2025-294AE","EPOCH":"2026-03-09T06:45:48.990528","MEAN_MOTION":15.27600826,"ECCENTRICITY":0.00042303,"INCLINATION":43.0039,"RA_OF_ASC_NODE":40.6469,"ARG_OF_PERICENTER":243.671,"MEAN_ANOMALY":116.3707,"EPHEMERIS_TYPE":0,"CLASSIFICATION_TYPE":"U","NORAD_CAT_ID":67058,"ELEMENT_SET_NO":999,"REV_AT_EPOCH":1473,"BSTAR":0.0013143484,"MEAN_MOTION_DOT":0.00036113,"MEAN_MOTION_DDOT":0}]
